KUIPER-00157            
1 65970U 25228Z   26014.25002315 -.01079271  00000+0 -44215-1 0  9992
2 65970  51.8804 224.0272 0005396 147.9617  33.6580 15.26707163  5527
KUIPER-00144            
1 67133U 25301A   26013.59338669  .00015339  00000+0  43804-3 0  9994
2 67133  51.8715 331.4843 0006301 175.8289 184.2751 15.36190122  5266
KUIPER-00164            
1 67134U 25301B   26014.16679577  .00025177  00000+0  69955-3 0  9991
2 67134  51.8725 328.5818 0003199 153.0867 207.0286 15.36713828  5530
KUIPER-00175            
1 67135U 25301C   26014.15714740  .00016253  00000+0  44830-3 0  9993
2 67135  51.8742 328.5179 0002527 110.4139 249.7119 15.37239041  5420
KUIPER-00179            
1 67136U 25301D   26014.09913733  .00020526  00000+0  56985-3 0  9992
2 67136  51.8740 328.8788 0003435 136.9977 223.1279 15.36865784  5522
KUIPER-00181            
1 67137U 25301E   26014.13465599  .00016734  00000+0  49633-3 0  9998
2 67137  51.8645 329.0941 0010594 204.9810 155.0664 15.34893848  5506
KUIPER-00183            
1 67138U 25301F   26014.07408936  .00022668  00000+0  66882-3 0  9992
2 67138  51.8634 329.4317 0011309 205.7627 154.2797 15.34840592  5502
KUIPER-00184            
1 67139U 25301G   26014.13279650  .00017096  00000+0  50288-3 0  9991
2 67139  51.8660 329.0812 0009341 205.3069 154.7460 15.35150886  5623
